{"type": "FeatureCollection", "features": [ {"type": "Feature", "properties": {"norad_id": 51444, "name": "CSG-2", "group": "resource", "lat": 78.18137365717413, "lon": 116.40545220954625, "alt_km": 614.1583035414915, "timestamp": "2025-12-02T08:59:32.377469+00:00", "meta": {"OBJECT_NAME": "CSG-2", "OBJECT_ID": "2022-008A", "EPOCH": "2025-12-01T19:39:56.390688", "MEAN_MOTION": 14.82169935, "ECCENTRICITY": 0.0001453, "INCLINATION": 97.8807, "RA_OF_ASC_NODE": 157.3069, "ARG_OF_PERICENTER": 86.3406, "MEAN_ANOMALY": 273.7973, "EPHEMERIS_TYPE": 0, "CLASSIFICATION_TYPE": "U", "NORAD_CAT_ID": 51444, "ELEMENT_SET_NO": 999, "REV_AT_EPOCH": 20735, "BSTAR": 7.4458e-05, "MEAN_MOTION_DOT": 5.41e-06, "MEAN_MOTION_DDOT": 0}, "tle": {"line1": "1 51444U 22008A   25335.81940267  .00000541  00000+0  74458-4 0  9996", "line2": "2 51444  97.8807 157.3069 0001453  86.3406 273.7973 14.82169935207353"}}, "geometry": {"type": "Point", "coordinates": [116.40545220954625, 78.18137365717413]}}, {"type": "Feature", "properties": {"norad_id": 52912, "name": "GAOFEN-12 03", "group": "resource", "lat": 81.45535251720075, "lon": 110.61028359041296, "alt_km": 621.6801264652704, "timestamp": "2025-12-02T08:59:32.377480+00:00", "meta": {"OBJECT_NAME": "GAOFEN-12 03", "OBJECT_ID": "2022-069A", "EPOCH": "2025-12-02T05:19:33.196800", "MEAN_MOTION": 14.79566581, "ECCENTRICITY": 0.0002331, "INCLINATION": 97.8486, "RA_OF_ASC_NODE": 223.8136, "ARG_OF_PERICENTER": 77.3976, "MEAN_ANOMALY": 282.7496, "EPHEMERIS_TYPE": 0, "CLASSIFICATION_TYPE": "U", "NORAD_CAT_ID": 52912, "ELEMENT_SET_NO": 999, "REV_AT_EPOCH": 18548, "BSTAR": 0.00019535, "MEAN_MOTION_DOT": 1.412e-05, "MEAN_MOTION_DDOT": 0}, "tle": {"line1": "1 52912U 22069A   25336.22191200  .00001412  00000+0  19535-3 0  9997", "line2": "2 52912  97.8486 223.8136 0002331  77.3976 282.7496 14.79566581185482"}}, "geometry": {"type": "Point", "coordinates": [110.61028359041296, 81.45535251720075]}}, {"type": "Feature", "properties": {"norad_id": 54754, "name": "SWOT", "group": "resource", "lat": 35.16820594838261, "lon": 112.07251598281903, "alt_km": 890.4192424205858, "timestamp": "2025-12-02T08:59:32.377490+00:00", "meta": {"OBJECT_NAME": "SWOT", "OBJECT_ID": "2022-173A", "EPOCH": "2025-12-02T04:52:41.517120", "MEAN_MOTION": 14.00172119, "ECCENTRICITY": 2.96e-05, "INCLINATION": 77.6099, "RA_OF_ASC_NODE": 301.2139, "ARG_OF_PERICENTER": 143.4026, "MEAN_ANOMALY": 216.7145, "EPHEMERIS_TYPE": 0, "CLASSIFICATION_TYPE": "U", "NORAD_CAT_ID": 54754, "ELEMENT_SET_NO": 999, "REV_AT_EPOCH": 15158, "BSTAR": 3.2373e-05, "MEAN_MOTION_DOT": 4.5e-07, "MEAN_MOTION_DDOT": 0}, "tle": {"line1": "1 54754U 22173A   25336.20325830  .00000045  00000+0  32373-4 0  9992", "line2": "2 54754  77.6099 301.2139 0000296 143.4026 216.7145 14.00172119151583"}}, "geometry": {"type": "Point", "coordinates": [112.07251598281903, 35.16820594838261]}}, {"type": "Feature", "properties": {"norad_id": 57654, "name": "GAOFEN-12 04", "group": "resource", "lat": -77.04089486755178, "lon": 35.11297376974678, "alt_km": 638.793639888002, "timestamp": "2025-12-02T08:59:32.377501+00:00", "meta": {"OBJECT_NAME": "GAOFEN-12 04", "OBJECT_ID": "2023-123A", "EPOCH": "2025-12-02T04:34:34.351104", "MEAN_MOTION": 14.79647511, "ECCENTRICITY": 0.0001476, "INCLINATION": 97.9112, "RA_OF_ASC_NODE": 252.1087, "ARG_OF_PERICENTER": 71.671, "MEAN_ANOMALY": 288.4662, "EPHEMERIS_TYPE": 0, "CLASSIFICATION_TYPE": "U", "NORAD_CAT_ID": 57654, "ELEMENT_SET_NO": 999, "REV_AT_EPOCH": 12349, "BSTAR": 0.00023989, "MEAN_MOTION_DOT": 1.748e-05, "MEAN_MOTION_DDOT": 0}, "tle": {"line1": "1 57654U 23123A   25336.19067536  .00001748  00000+0  23989-3 0  9997", "line2": "2 57654  97.9112 252.1087 0001476  71.6710 288.4662 14.79647511123493"}}, "geometry": {"type": "Point", "coordinates": [35.11297376974678, -77.04089486755178]}}, {"type": "Feature", "properties": {"norad_id": 59065, "name": "PARS 1", "group": "resource", "lat": 0.4288941717283832, "lon": 127.14814190843315, "alt_km": 445.37240300377744, "timestamp": "2025-12-02T08:59:32.377511+00:00", "meta": {"OBJECT_NAME": "PARS 1", "OBJECT_ID": "2024-039Q", "EPOCH": "2025-12-02T05:05:57.934176", "MEAN_MOTION": 15.40614759, "ECCENTRICITY": 0.0012645, "INCLINATION": 97.4616, "RA_OF_ASC_NODE": 306.9264, "ARG_OF_PERICENTER": 103.1403, "MEAN_ANOMALY": 257.1255, "EPHEMERIS_TYPE": 0, "CLASSIFICATION_TYPE": "U", "NORAD_CAT_ID": 59065, "ELEMENT_SET_NO": 999, "REV_AT_EPOCH": 9826, "BSTAR": 0.00035151, "MEAN_MOTION_DOT": 0.00014273, "MEAN_MOTION_DDOT": 0}, "tle": {"line1": "1 59065U 24039Q   25336.21247609  .00014273  00000+0  35151-3 0  9997", "line2": "2 59065  97.4616 306.9264 0012645 103.1403 257.1255 15.40614759 98264"}}, "geometry": {"type": "Point", "coordinates": [127.14814190843315, 0.4288941717283832]}}, {"type": "Feature", "properties": {"norad_id": 59371, "name": "RESURS-P 4", "group": "resource", "lat": -70.17674173506174, "lon": -56.3931864974254, "alt_km": 478.2172414967936, "timestamp": "2025-12-02T08:59:32.377521+00:00", "meta": {"OBJECT_NAME": "RESURS-P 4", "OBJECT_ID": "2024-061A", "EPOCH": "2025-12-02T04:36:04.017888", "MEAN_MOTION": 15.31952074, "ECCENTRICITY": 0.0002258, "INCLINATION": 97.2524, "RA_OF_ASC_NODE": 282.74, "ARG_OF_PERICENTER": 55.8611, "MEAN_ANOMALY": 304.2845, "EPHEMERIS_TYPE": 0, "CLASSIFICATION_TYPE": "U", "NORAD_CAT_ID": 59371, "ELEMENT_SET_NO": 999, "REV_AT_EPOCH": 9359, "BSTAR": 0.00017205, "MEAN_MOTION_DOT": 5.232e-05, "MEAN_MOTION_DDOT": 0}, "tle": {"line1": "1 59371U 24061A   25336.19171317  .00005232  00000+0  17205-3 0  9996", "line2": "2 59371  97.2524 282.7400 0002258  55.8611 304.2845 15.31952074 93591"}}, "geometry": {"type": "Point", "coordinates": [-56.3931864974254, -70.17674173506174]}}, {"type": "Feature", "properties": {"norad_id": 59625, "name": "LEGION 1", "group": "resource", "lat": 15.173022084852667, "lon": 49.04865163940086, "alt_km": 514.7271112405124, "timestamp": "2025-12-02T08:59:32.377531+00:00", "meta": {"OBJECT_NAME": "LEGION 1", "OBJECT_ID": "2024-081A", "EPOCH": "2025-12-02T02:35:23.665056", "MEAN_MOTION": 15.16310197, "ECCENTRICITY": 0.0004821, "INCLINATION": 97.523, "RA_OF_ASC_NODE": 50.838, "ARG_OF_PERICENTER": 358.9077, "MEAN_ANOMALY": 1.2144, "EPHEMERIS_TYPE": 0, "CLASSIFICATION_TYPE": "U", "NORAD_CAT_ID": 59625, "ELEMENT_SET_NO": 999, "REV_AT_EPOCH": 8766, "BSTAR": 0.00031526, "MEAN_MOTION_DOT": 6.043e-05, "MEAN_MOTION_DDOT": 0}, "tle": {"line1": "1 59625U 24081A   25336.10791279  .00006043  00000+0  31526-3 0  9999", "line2": "2 59625  97.5230  50.8380 0004821 358.9077   1.2144 15.16310197 87666"}}, "geometry": {"type": "Point", "coordinates": [49.04865163940086, 15.173022084852667]}}, {"type": "Feature", "properties": {"norad_id": 59626, "name": "LEGION 2", "group": "resource", "lat": -14.682905847528284, "lon": -130.79547516703045, "alt_km": 525.122756500029, "timestamp": "2025-12-02T08:59:32.377542+00:00", "meta": {"OBJECT_NAME": "LEGION 2", "OBJECT_ID": "2024-081B", "EPOCH": "2025-12-02T03:23:04.850304", "MEAN_MOTION": 15.16323556, "ECCENTRICITY": 0.0006325, "INCLINATION": 97.5235, "RA_OF_ASC_NODE": 50.9574, "ARG_OF_PERICENTER": 336.617, "MEAN_ANOMALY": 23.4774, "EPHEMERIS_TYPE": 0, "CLASSIFICATION_TYPE": "U", "NORAD_CAT_ID": 59626, "ELEMENT_SET_NO": 999, "REV_AT_EPOCH": 8767, "BSTAR": 0.00031608, "MEAN_MOTION_DOT": 6.063e-05, "MEAN_MOTION_DDOT": 0}, "tle": {"line1": "1 59626U 24081B   25336.14102836  .00006063  00000+0  31608-3 0  9992", "line2": "2 59626  97.5235  50.9574 0006325 336.6170  23.4774 15.16323556 87675"}}, "geometry": {"type": "Point", "coordinates": [-130.79547516703045, -14.682905847528284]}}, {"type": "Feature", "properties": {"norad_id": 60182, "name": "ALOS-4 (DAICHI-4)", "group": "resource", "lat": 31.633118496267702, "lon": -103.709112598289, "alt_km": 628.6521085180866, "timestamp": "2025-12-02T08:59:32.377554+00:00", "meta": {"OBJECT_NAME": "ALOS-4 (DAICHI-4)", "OBJECT_ID": "2024-123A", "EPOCH": "2025-11-30T09:15:12.370176", "MEAN_MOTION": 14.79468497, "ECCENTRICITY": 0.000127, "INCLINATION": 97.9232, "RA_OF_ASC_NODE": 69.4089, "ARG_OF_PERICENTER": 105.4124, "MEAN_ANOMALY": 254.7228, "EPHEMERIS_TYPE": 0, "CLASSIFICATION_TYPE": "U", "NORAD_CAT_ID": 60182, "ELEMENT_SET_NO": 999, "REV_AT_EPOCH": 7648, "BSTAR": -8.429942e-06, "MEAN_MOTION_DOT": -1.14e-06, "MEAN_MOTION_DDOT": 0}, "tle": {"line1": "1 60182U 24123A   25334.38555984 -.00000114  00000+0 -84299-5 0  9997", "line2": "2 60182  97.9232  69.4089 0001270 105.4124 254.7228 14.79468497 76488"}}, "geometry": {"type": "Point", "coordinates": [-103.709112598289, 31.633118496267702]}}, {"type": "Feature", "properties": {"norad_id": 60452, "name": "LEGION 3", "group": "resource", "lat": 2.8887490958822157, "lon": -177.20453300040813, "alt_km": 511.22650753400467, "timestamp": "2025-12-02T08:59:32.377565+00:00", "meta": {"OBJECT_NAME": "LEGION 3", "OBJECT_ID": "2024-146A", "EPOCH": "2025-12-01T19:33:56.647008", "MEAN_MOTION": 15.15575766, "ECCENTRICITY": 0.001365, "INCLINATION": 45.0024, "RA_OF_ASC_NODE": 8.6893, "ARG_OF_PERICENTER": 136.4401, "MEAN_ANOMALY": 223.7558, "EPHEMERIS_TYPE": 0, "CLASSIFICATION_TYPE": "U", "NORAD_CAT_ID": 60452, "ELEMENT_SET_NO": 999, "REV_AT_EPOCH": 7207, "BSTAR": 0.00029052, "MEAN_MOTION_DOT": 5.357e-05, "MEAN_MOTION_DDOT": 0}, "tle": {"line1": "1 60452U 24146A   25335.81523897  .00005357  00000+0  29052-3 0  9995", "line2": "2 60452  45.0024   8.6893 0013650 136.4401 223.7558 15.15575766 72078"}}, "geometry": {"type": "Point", "coordinates": [-177.20453300040813, 2.8887490958822157]}}]}